STARLINK-2143           
1 47733U 21017M   26068.68949480  .00015853  00000+0  54588-3 0  9999
2 47733  53.1604 216.7243 0000718  99.8230 260.2852 15.30220114277715
GLOBAL-34               
1 68098U 26043A   26068.47466435  .00014018  00000+0  45822-3 0  9994
2 68098  42.0215  76.7399 0006884 289.2632  70.7460 15.31488019   538
